IRIDIUM 144             
1 43249U 18030A   25255.83096312  .00000184  00000+0  58739-4 0  9993
2 43249  86.3946  46.3314 0002198  91.6866 268.4582 14.34216275390380
IRIDIUM 149             
1 43250U 18030B   25255.69777146  .00000111  00000+0  32621-4 0  9992
2 43250  86.3949  46.3569 0002211  90.0841 270.0609 14.34217578390385
IRIDIUM 157             
1 43251U 18030C   25255.71679893  .00000178  00000+0  56363-4 0  9998
2 43251  86.3951  46.3960 0001908  90.2119 269.9295 14.34217622390362
IRIDIUM 140             
1 43252U 18030D   25255.66605878  .00000233  00000+0  76205-4 0  9994
2 43252  86.3950  46.4305 0002283  92.5284 267.6173 14.34217440390415
IRIDIUM 145             
1 43253U 18030E   25255.86267967  .00000040  00000+0  73474-5 0  9992
2 43253  86.3951  46.3210 0002523  86.7759 273.3725 14.34217231390370
IRIDIUM 146             
1 43254U 18030F   25255.70411470  .00000076  00000+0  20011-4 0  9993
2 43254  86.3951  46.4007 0002442  88.1638 271.9838 14.34217308390361
IRIDIUM 148             
1 43255U 18030G   25255.67240064  .00000028  00000+0  29081-5 0  9993
2 43255  86.3950  46.4527 0002100  88.0551 272.0885 14.34217204390394
IRIDIUM 142             
1 43256U 18030H   25255.71045723  .00000116  00000+0  34270-4 0  9997
2 43256  86.3948  46.3359 0002558  84.8144 275.3343 14.34217772390365
